CTC1_L_00657001-01
1 10000U 24684VB  26075.70039352  .00000000  00000+0  00000-0 0  9993
2 10000  65.0000   0.0000 0000000   0.0000   0.0000  3.34706435    10
CTC1_L_00657001-02
1 10001U 25029XF  26075.70039352  .00000000  00000+0  00000-0 0  9998
2 10001  65.0000   0.0000 0000000   0.0000  36.0000  3.34706435    10
CTC1_L_00657001-03
1 10002U 25311VK  26075.70039352  .00000000  00000+0  00000-0 0  9993
2 10002  65.0000   0.0000 0000000   0.0000  72.0000  3.34706435    11
CTC1_L_00657001-04
1 10003U 25248FP  26075.70039352  .00000000  00000+0  00000-0 0  9993
2 10003  65.0000   0.0000 0000000   0.0000 108.0000  3.34706435    12
CTC1_L_00657001-05
1 10004U 22511FC  26075.70039352  .00000000  00000+0  00000-0 0  9994
2 10004  65.0000   0.0000 0000000   0.0000 144.0000  3.34706435    13
CTC1_L_00657001-06
1 10005U 24332GI  26075.70039352  .00000000  00000+0  00000-0 0  9998
2 10005  65.0000   0.0000 0000000   0.0000 180.0000  3.34706435    14
CTC1_L_00657001-07
1 10006U 25527BY  26075.70039352  .00000000  00000+0  00000-0 0  9996
2 10006  65.0000   0.0000 0000000   0.0000 216.0000  3.34706435    15
CTC1_L_00657001-08
1 10007U 23006FW  26075.70039352  .00000000  00000+0  00000-0 0  9997
2 10007  65.0000   0.0000 0000000   0.0000 252.0000  3.34706435    16
CTC1_L_00657001-09
1 10008U 25196QU  26075.70039352  .00000000  00000+0  00000-0 0  9990
2 10008  65.0000   0.0000 0000000   0.0000 288.0000  3.34706435    16
CTC1_L_00657001-10
1 10009U 26382HO  26075.70039352  .00000000  00000+0  00000-0 0  9999
2 10009  65.0000   0.0000 0000000   0.0000 324.0000  3.34706435    18
CTC1_L_00657002-01
1 10010U 26685LO  26075.70039352  .00000000  00000+0  00000-0 0  9997
2 10010  65.0000  30.0000 0000000   0.0000  12.0000  3.34706435    17
CTC1_L_00657002-02
1 10011U 23491MR  26075.70039352  .00000000  00000+0  00000-0 0  9990
2 10011  65.0000  30.0000 0000000   0.0000  48.0000  3.34706435    17
CTC1_L_00657002-03
1 10012U 22543HW  26075.70039352  .00000000  00000+0  00000-0 0  9998
2 10012  65.0000  30.0000 0000000   0.0000  84.0000  3.34706435    18
CTC1_L_00657002-04
1 10013U 22337QE  26075.70039352  .00000000  00000+0  00000-0 0  9990
2 10013  65.0000  30.0000 0000000   0.0000 120.0000  3.34706435    10
CTC1_L_00657002-05
1 10014U 25506GV  26075.70039352  .00000000  00000+0  00000-0 0  9992
2 10014  65.0000  30.0000 0000000   0.0000 156.0000  3.34706435    10
CTC1_L_00657002-06
1 10015U 24105BW  26075.70039352  .00000000  00000+0  00000-0 0  9997
2 10015  65.0000  30.0000 0000000   0.0000 192.0000  3.34706435    11
CTC1_L_00657002-07
1 10016U 22090ZK  26075.70039352  .00000000  00000+0  00000-0 0  9999
2 10016  65.0000  30.0000 0000000   0.0000 228.0000  3.34706435    12
CTC1_L_00657002-08
1 10017U 24135WO  26075.70039352  .00000000  00000+0  00000-0 0  9992
2 10017  65.0000  30.0000 0000000   0.0000 264.0000  3.34706435    13
CTC1_L_00657002-09
1 10018U 24528CU  26075.70039352  .00000000  00000+0  00000-0 0  9999
2 10018  65.0000  30.0000 0000000   0.0000 300.0000  3.34706435    15
CTC1_L_00657002-10
1 10019U 24436WR  26075.70039352  .00000000  00000+0  00000-0 0  9998
2 10019  65.0000  30.0000 0000000   0.0000 336.0000  3.34706435    15
CTC1_L_00657003-01
1 10020U 24623XQ  26075.70039352  .00000000  00000+0  00000-0 0  9998
2 10020  65.0000  60.0000 0000000   0.0000  24.0000  3.34706435    14
CTC1_L_00657003-02
1 10021U 25513ZY  26075.70039352  .00000000  00000+0  00000-0 0  9998
2 10021  65.0000  60.0000 0000000   0.0000  60.0000  3.34706435    15
CTC1_L_00657003-03
1 10022U 25727E   26075.70039352  .00000000  00000+0  00000-0 0  9996
2 10022  65.0000  60.0000 0000000   0.0000  96.0000  3.34706435    15
CTC1_L_00657003-04
1 10023U 24963GY  26075.70039352  .00000000  00000+0  00000-0 0  9998
2 10023  65.0000  60.0000 0000000   0.0000 132.0000  3.34706435    17
CTC1_L_00657003-05
1 10024U 24952WW  26075.70039352  .00000000  00000+0  00000-0 0  9997
2 10024  65.0000  60.0000 0000000   0.0000 168.0000  3.34706435    17
CTC1_L_00657003-06
1 10025U 25211HA  26075.70039352  .00000000  00000+0  00000-0 0  9997
2 10025  65.0000  60.0000 0000000   0.0000 204.0000  3.34706435    19
CTC1_L_00657003-07
1 10026U 25088MS  26075.70039352  .00000000  00000+0  00000-0 0  9990
2 10026  65.0000  60.0000 0000000   0.0000 240.0000  3.34706435    10
CTC1_L_00657003-08
1 10027U 26648MB  26075.70039352  .00000000  00000+0  00000-0 0  9994
2 10027  65.0000  60.0000 0000000   0.0000 276.0000  3.34706435    10
CTC1_L_00657003-09
1 10028U 24111MV  26075.70039352  .00000000  00000+0  00000-0 0  9998
2 10028  65.0000  60.0000 0000000   0.0000 312.0000  3.34706435    12
CTC1_L_00657003-10
1 10029U 26979XJ  26075.70039352  .00000000  00000+0  00000-0 0  9993
2 10029  65.0000  60.0000 0000000   0.0000 348.0000  3.34706435    12
CTC1_L_00657004-01
1 10030U 24601JN  26075.70039352  .00000000  00000+0  00000-0 0  9995
2 10030  65.0000  90.0000 0000000   0.0000  36.0000  3.34706435    11
CTC1_L_00657004-02
1 10031U 23778BN  26075.70039352  .00000000  00000+0  00000-0 0  9990
2 10031  65.0000  90.0000 0000000   0.0000  72.0000  3.34706435    12
CTC1_L_00657004-03
1 10032U 24398CH  26075.70039352  .00000000  00000+0  00000-0 0  9990
2 10032  65.0000  90.0000 0000000   0.0000 108.0000  3.34706435    13
CTC1_L_00657004-04
1 10033U 26729BO  26075.70039352  .00000000  00000+0  00000-0 0  9991
2 10033  65.0000  90.0000 0000000   0.0000 144.0000  3.34706435    14
CTC1_L_00657004-05
1 10034U 24607OF  26075.70039352  .00000000  00000+0  00000-0 0  9995
2 10034  65.0000  90.0000 0000000   0.0000 180.0000  3.34706435    15
CTC1_L_00657004-06
1 10035U 23687MK  26075.70039352  .00000000  00000+0  00000-0 0  9993
2 10035  65.0000  90.0000 0000000   0.0000 216.0000  3.34706435    16
CTC1_L_00657004-07
1 10036U 26818ZY  26075.70039352  .00000000  00000+0  00000-0 0  9993
2 10036  65.0000  90.0000 0000000   0.0000 252.0000  3.34706435    17
CTC1_L_00657004-08
1 10037U 25964WC  26075.70039352  .00000000  00000+0  00000-0 0  9995
2 10037  65.0000  90.0000 0000000   0.0000 288.0000  3.34706435    17
CTC1_L_00657004-09
1 10038U 26894RL  26075.70039352  .00000000  00000+0  00000-0 0  9999
2 10038  65.0000  90.0000 0000000   0.0000 324.0000  3.34706435    19
CTC1_L_00657004-10
1 10039U 23557KC  26075.70039352  .00000000  00000+0  00000-0 0  9993
2 10039  65.0000  90.0000 0000000   0.0000   0.0000  3.34706435    11
CTC1_L_00657005-01
1 10040U 24293KJ  26075.70039352  .00000000  00000+0  00000-0 0  9993
2 10040  65.0000 120.0000 0000000   0.0000  48.0000  3.34706435    19
CTC1_L_00657005-02
1 10041U 24239HC  26075.70039352  .00000000  00000+0  00000-0 0  9994
2 10041  65.0000 120.0000 0000000   0.0000  84.0000  3.34706435    10
CTC1_L_00657005-03
1 10042U 25524QJ  26075.70039352  .00000000  00000+0  00000-0 0  9993
2 10042  65.0000 120.0000 0000000   0.0000 120.0000  3.34706435    12
CTC1_L_00657005-04
1 10043U 22255PM  26075.70039352  .00000000  00000+0  00000-0 0  9992
2 10043  65.0000 120.0000 0000000   0.0000 156.0000  3.34706435    12
CTC1_L_00657005-05
1 10044U 22604P   26075.70039352  .00000000  00000+0  00000-0 0  9991
2 10044  65.0000 120.0000 0000000   0.0000 192.0000  3.34706435    13
CTC1_L_00657005-06
1 10045U 26133EJ  26075.70039352  .00000000  00000+0  00000-0 0  9993
2 10045  65.0000 120.0000 0000000   0.0000 228.0000  3.34706435    14
CTC1_L_00657005-07
1 10046U 26545PT  26075.70039352  .00000000  00000+0  00000-0 0  9991
2 10046  65.0000 120.0000 0000000   0.0000 264.0000  3.34706435    15
CTC1_L_00657005-08
1 10047U 25937LW  26075.70039352  .00000000  00000+0  00000-0 0  9996
2 10047  65.0000 120.0000 0000000   0.0000 300.0000  3.34706435    17
CTC1_L_00657005-09
1 10048U 26843JH  26075.70039352  .00000000  00000+0  00000-0 0  9994
2 10048  65.0000 120.0000 0000000   0.0000 336.0000  3.34706435    17
CTC1_L_00657005-10
1 10049U 22226QX  26075.70039352  .00000000  00000+0  00000-0 0  9996
2 10049  65.0000 120.0000 0000000   0.0000  12.0000  3.34706435    19
CTC1_L_00657006-01
1 10050U 26500TK  26075.70039352  .00000000  00000+0  00000-0 0  9997
2 10050  65.0000 150.0000 0000000   0.0000  60.0000  3.34706435    17
CTC1_L_00657006-02
1 10051U 25469TT  26075.70039352  .00000000  00000+0  00000-0 0  9991
2 10051  65.0000 150.0000 0000000   0.0000  96.0000  3.34706435    17
CTC1_L_00657006-03
1 10052U 24252WH  26075.70039352  .00000000  00000+0  00000-0 0  9991
2 10052  65.0000 150.0000 0000000   0.0000 132.0000  3.34706435    19
CTC1_L_00657006-04
1 10053U 23835HH  26075.70039352  .00000000  00000+0  00000-0 0  9998
2 10053  65.0000 150.0000 0000000   0.0000 168.0000  3.34706435    19
CTC1_L_00657006-05
1 10054U 24038XK  26075.70039352  .00000000  00000+0  00000-0 0  9995
2 10054  65.0000 150.0000 0000000   0.0000 204.0000  3.34706435    11
CTC1_L_00657006-06
1 10055U 24009LJ  26075.70039352  .00000000  00000+0  00000-0 0  9994
2 10055  65.0000 150.0000 0000000   0.0000 240.0000  3.34706435    12
CTC1_L_00657006-07
1 10056U 22008BE  26075.70039352  .00000000  00000+0  00000-0 0  9992
2 10056  65.0000 150.0000 0000000   0.0000 276.0000  3.34706435    12
CTC1_L_00657006-08
1 10057U 26478AG  26075.70039352  .00000000  00000+0  00000-0 0  9998
2 10057  65.0000 150.0000 0000000   0.0000 312.0000  3.34706435    14
CTC1_L_00657006-09
1 10058U 25435VH  26075.70039352  .00000000  00000+0  00000-0 0  9991
2 10058  65.0000 150.0000 0000000   0.0000 348.0000  3.34706435    14
CTC1_L_00657006-10
1 10059U 23996B   26075.70039352  .00000000  00000+0  00000-0 0  9992
2 10059  65.0000 150.0000 0000000   0.0000  24.0000  3.34706435    16
CTC1_L_00657007-01
1 10060U 26323GV  26075.70039352  .00000000  00000+0  00000-0 0  9991
2 10060  65.0000 180.0000 0000000   0.0000  72.0000  3.34706435    14
CTC1_L_00657007-02
1 10061U 22100CT  26075.70039352  .00000000  00000+0  00000-0 0  9991
2 10061  65.0000 180.0000 0000000   0.0000 108.0000  3.34706435    15
